[
    {
      "OBJECT_NAME": "IRIDIUM 178",
      "OBJECT_ID": "2023-068V",
      "EPOCH": "2026-03-26T23:21:01.637568",
      "MEAN_MOTION": 14.80227807,
      "ECCENTRICITY": 0.00028388,
      "INCLINATION": 86.651,
      "RA_OF_ASC_NODE": 59.7069,
      "ARG_OF_PERICENTER": 90.6054,
      "MEAN_ANOMALY": 269.5493,
      "EPHEMERIS_TYPE": 0,
      "CLASSIFICATION_TYPE": "U",
      "NORAD_CAT_ID": 56729,
      "ELEMENT_SET_NO": 999,
      "REV_AT_EPOCH": 15420,
      "BSTAR": 0.00015530631,
      "MEAN_MOTION_DOT": 0.00001206,
      "MEAN_MOTION_DDOT": 0
    },
    {
      "OBJECT_NAME": "IRIDIUM 179",
      "OBJECT_ID": "2023-068W",
      "EPOCH": "2026-03-26T23:13:14.981664",
      "MEAN_MOTION": 14.80242278,
      "ECCENTRICITY": 0.0002575,
      "INCLINATION": 86.6736,
      "RA_OF_ASC_NODE": 68.4503,
      "ARG_OF_PERICENTER": 95.0025,
      "MEAN_ANOMALY": 265.149,
      "EPHEMERIS_TYPE": 0,
      "CLASSIFICATION_TYPE": "U",
      "NORAD_CAT_ID": 56730,
      "ELEMENT_SET_NO": 999,
      "REV_AT_EPOCH": 15420,
      "BSTAR": 0.000075909614,
      "MEAN_MOTION_DOT": 0.00000603,
      "MEAN_MOTION_DDOT": 0
    }
  ]