IRIDIUM 178             
1 56729U 23068V   26085.97293562  .00001206  00000+0  15531-3 0  9998
2 56729  86.6510  59.7069 0002838  90.6054 269.5493 14.80227807154207
IRIDIUM 179             
1 56730U 23068W   26085.96753451  .00000603  00000+0  75910-4 0  9995
2 56730  86.6736  68.4503 0002575  95.0025 265.1490 14.80242278154202
